STARLINK-30572          
1 58114U 23161T   26068.57878788  .00000398  00000+0  25572-4 0  9996
2 58114  53.1607 166.1148 0001185  74.0449 286.0682 15.30184285134404
BLUEBON                 
1 62688U 25009CH  26068.70316231  .00010452  00000+0  37313-3 0  9992
2 62688  97.4017 152.2033 0001193  43.3900 316.7434 15.29047253 63767
